SAUDISAT 1C (SO-50)     
1 27607U 02058C   26062.14270155  .00001952  00000+0  24771-3 0  9998
2 27607  64.5510  97.0209 0075095 281.8469  77.4222 14.82750791248738
SAUDISAT 2              
1 28371U 04025F   26061.97016044  .00000434  00000+0  10808-3 0  9998
2 28371  98.5492  59.2228 0023516 262.7877  97.0646 14.56609116150281
SAUDISAT 3              
1 31118U 07012B   26061.83278619  .00000455  00000+0  81749-4 0  9999
2 31118  98.1338  12.2425 0014071 200.9672 159.0959 14.71345943 12106
PISAT                   
1 41784U 16059B   26061.94452745  .00001298  00000+0  22930-3 0  9998
2 41784  97.8188  66.9790 0029000 182.1280 177.9807 14.68753058504147
FLYING LAPTOP           
1 42831U 17042G   26062.17605742  .00002715  00000+0  21952-3 0  9996
2 42831  97.4247 222.1410 0018419 116.4688 243.8429 15.00460179470558
SALSAT                  
1 46495U 20068K   26061.92839164  .00011638  00000+0  42811-3 0  9998
2 46495  97.8846  58.6665 0008827 325.0587  35.0071 15.28017587299126
