[{"OBJECT_NAME":"SAUDISAT 1C (SO-50)","OBJECT_ID":"2002-058C","EPOCH":"2026-03-03T03:25:29.413920","MEAN_MOTION":14.82750791,"ECCENTRICITY":0.0075095,"INCLINATION":64.551,"RA_OF_ASC_NODE":97.0209,"ARG_OF_PERICENTER":281.8469,"MEAN_ANOMALY":77.4222,"EPHEMERIS_TYPE":0,"CLASSIFICATION_TYPE":"U","NORAD_CAT_ID":27607,"ELEMENT_SET_NO":999,"REV_AT_EPOCH":24873,"BSTAR":0.00024771,"MEAN_MOTION_DOT":1.952e-5,"MEAN_MOTION_DDOT":0},{"OBJECT_NAME":"SAUDISAT 2","OBJECT_ID":"2004-025F","EPOCH":"2026-03-02T23:17:01.862016","MEAN_MOTION":14.56609116,"ECCENTRICITY":0.0023516,"INCLINATION":98.5492,"RA_OF_ASC_NODE":59.2228,"ARG_OF_PERICENTER":262.7877,"MEAN_ANOMALY":97.0646,"EPHEMERIS_TYPE":0,"CLASSIFICATION_TYPE":"U","NORAD_CAT_ID":28371,"ELEMENT_SET_NO":999,"REV_AT_EPOCH":15028,"BSTAR":0.00010808,"MEAN_MOTION_DOT":4.34e-6,"MEAN_MOTION_DDOT":0},{"OBJECT_NAME":"SAUDISAT 3","OBJECT_ID":"2007-012B","EPOCH":"2026-03-02T19:59:12.726816","MEAN_MOTION":14.71345943,"ECCENTRICITY":0.0014071,"INCLINATION":98.1338,"RA_OF_ASC_NODE":12.2425,"ARG_OF_PERICENTER":200.9672,"MEAN_ANOMALY":159.0959,"EPHEMERIS_TYPE":0,"CLASSIFICATION_TYPE":"U","NORAD_CAT_ID":31118,"ELEMENT_SET_NO":999,"REV_AT_EPOCH":1210,"BSTAR":8.1749e-5,"MEAN_MOTION_DOT":4.55e-6,"MEAN_MOTION_DDOT":0},{"OBJECT_NAME":"PISAT","OBJECT_ID":"2016-059B","EPOCH":"2026-03-02T22:40:07.171680","MEAN_MOTION":14.68753058,"ECCENTRICITY":0.0029,"INCLINATION":97.8188,"RA_OF_ASC_NODE":66.979,"ARG_OF_PERICENTER":182.128,"MEAN_ANOMALY":177.9807,"EPHEMERIS_TYPE":0,"CLASSIFICATION_TYPE":"U","NORAD_CAT_ID":41784,"ELEMENT_SET_NO":999,"REV_AT_EPOCH":50414,"BSTAR":0.0002293,"MEAN_MOTION_DOT":1.298e-5,"MEAN_MOTION_DDOT":0},{"OBJECT_NAME":"FLYING LAPTOP","OBJECT_ID":"2017-042G","EPOCH":"2026-03-03T04:13:31.361088","MEAN_MOTION":15.00460179,"ECCENTRICITY":0.0018419,"INCLINATION":97.4247,"RA_OF_ASC_NODE":222.141,"ARG_OF_PERICENTER":116.4688,"MEAN_ANOMALY":243.8429,"EPHEMERIS_TYPE":0,"CLASSIFICATION_TYPE":"U","NORAD_CAT_ID":42831,"ELEMENT_SET_NO":999,"REV_AT_EPOCH":47055,"BSTAR":0.00021952,"MEAN_MOTION_DOT":2.715e-5,"MEAN_MOTION_DDOT":0},{"OBJECT_NAME":"SALSAT","OBJECT_ID":"2020-068K","EPOCH":"2026-03-02T22:16:53.037696","MEAN_MOTION":15.28017587,"ECCENTRICITY":0.0008827,"INCLINATION":97.8846,"RA_OF_ASC_NODE":58.6665,"ARG_OF_PERICENTER":325.0587,"MEAN_ANOMALY":35.0071,"EPHEMERIS_TYPE":0,"CLASSIFICATION_TYPE":"U","NORAD_CAT_ID":46495,"ELEMENT_SET_NO":999,"REV_AT_EPOCH":29912,"BSTAR":0.00042811,"MEAN_MOTION_DOT":0.00011638,"MEAN_MOTION_DDOT":0}]
